ONEWEB-0271             
1 48989U 21060Y   24279.49164706  .00000241  00000+0  59627-3 0  9996
2 48989  87.9164 352.1957 0002137 107.9198 252.2165 13.16595595158124
ONEWEB-0272             
1 48990U 21060Z   24279.74179647  .00000069  00000+0  14774-3 0  9998
2 48990  87.9165 352.1761 0001981 106.4735 253.6614 13.16595458159401
ONEWEB-0273             
1 48991U 21060AA  24279.76396720 -.00000044  00000+0 -14888-3 0  9995
2 48991  87.9165 352.1573 0002045  99.3989 260.7373 13.16594486159384
ONEWEB-0274             
1 48992U 21060AB  24279.48531683  .00000178  00000+0  43099-3 0  9996
2 48992  87.9173 352.2340 0001759 116.2847 243.8464 13.16595157158085
ONEWEB-0275             
1 48993U 21060AC  24279.47422946  .00000160  00000+0  38408-3 0  9996
2 48993  87.9164 352.2104 0001978 103.1383 256.9969 13.16595312158018
ONEWEB-0276             
1 48994U 21060AD  24279.50746842  .00000253  00000+0  62824-3 0  9997
2 48994  87.9165 352.2003 0002142 100.5183 259.6189 13.16597756158031
ONEWEB-0277             
1 48995U 21060AE  24279.44414060  .00000175  00000+0  42391-3 0  9995
2 48995  87.9165 352.2506 0002309 107.1344 253.0040 13.16597312158017
ONEWEB-0278             
1 48996U 21060AF  24279.73862181  .00000101  00000+0  23080-3 0  9992
2 48996  87.9164 352.1514 0001849  91.3611 268.7732 13.16596784159490
ONEWEB-0279             
1 48997U 21060AG  24279.74654909  .00000070  00000+0  15017-3 0  9997
2 48997  87.9163 352.1470 0002166 108.3808 251.7559 13.16595980159419
ONEWEB-0280             
1 48998U 21060AH  24279.45675167 -.00001649  00000+0 -43466-2 0  9998
2 48998  87.9166 352.2065 0002131  97.7748 262.3625 13.16607004158018
ONEWEB-0281             
1 48999U 21060AJ  24279.46314300  .00000169  00000+0  40904-3 0  9998
2 48999  87.9164 352.2064 0001743 105.2701 254.8622 13.16596155158082
ONEWEB-0282             
1 49000U 21060AK  24279.49322422  .00000201  00000+0  49237-3 0  9994
2 49000  87.9164 352.2172 0002176 100.4403 259.6973 13.16596448158068
ONEWEB-0283             
1 49001U 21060AL  24279.48213571  .00000124  00000+0  29176-3 0  9992
2 49001  87.9164 352.2248 0002050 107.0436 253.0919 13.16597437158071
ONEWEB-0284             
1 49002U 21060AM  24279.47580008  .00000161  00000+0  38643-3 0  9994
2 49002  87.9157 352.2032 0001954  95.1754 264.9600 13.16593941158059
ONEWEB-0285             
1 49075U 21075A   24279.55708690 -.00000017  00000+0 -81964-4 0  9995
2 49075  87.8846 114.0721 0001656  82.1724 277.9592 13.12440340153930
ONEWEB-0286             
1 49076U 21075B   24279.83350786  .00000117  00000+0  29045-3 0  9996
2 49076  87.8845 114.0162 0001408  76.6969 283.4316 13.12443314154305
ONEWEB-0287             
1 49077U 21075C   24279.52748528  .00002610  00000+0  66843-2 0  9994
2 49077  87.9087 129.3049 0001997  78.0236 282.1119 13.17673312152026
ONEWEB-0288             
1 49078U 21075D   24279.51479210 -.00000019  00000+0 -88474-4 0  9992
2 49078  87.8848 114.0833 0001674  77.8020 282.3296 13.12445066153907
ONEWEB-0289             
1 49079U 21075E   24279.55621077  .00000054  00000+0  10634-3 0  9996
2 49079  87.9100 129.3261 0001721  81.5324 278.6002 13.17649104152609
ONEWEB-0290             
1 49080U 21075F   24279.84306895  .00000115  00000+0  26215-3 0  9998
2 49080  87.9102 129.2286 0002388  82.8814 277.2589 13.17647661153036
ONEWEB-0291             
1 49081U 21075G   24279.52414481  .00000059  00000+0  11881-3 0  9995
2 49081  87.9094 129.3076 0001750  71.1441 288.9880 13.17650304152001
ONEWEB-0293             
1 49082U 21075H   24279.54945080  .00000024  00000+0  27799-4 0  9990
2 49082  87.9100 129.3224 0001800  74.5424 285.5906 13.17651083152039
ONEWEB-0294             
1 49083U 21075J   24279.82622643  .00000494  00000+0  13371-2 0  9999
2 49083  87.8845 114.0204 0002074  69.1881 290.9469 13.12446398154329
ONEWEB-0295             
1 49084U 21075K   24279.85235192 -.00001346  00000+0 -35015-2 0  9990
2 49084  87.9061 129.2398 0001718  66.3956 293.7356 13.17647027152993
ONEWEB-0296             
1 49085U 21075L   24279.50178914 -.00000354  00000+0 -10195-2 0  9991
2 49085  87.8850 114.0879 0001823  60.3196 299.8114 13.12441784153292
ONEWEB-0297             
1 49086U 21075M   24279.53263533  .00000476  00000+0  12879-2 0  9991
2 49086  87.8855 114.0971 0001543  82.5111 277.6193 13.12443463153908
ONEWEB-0298             
1 49087U 21075N   24279.55284434  .00000118  00000+0  27086-3 0  9997
2 49087  87.9100 129.3177 0001440  78.3587 281.7706 13.17650789152020
ONEWEB-0299             
1 49088U 21075P   24279.55452115  .00000049  00000+0  93004-4 0  9998
2 49088  87.9096 129.2821 0001399  74.8116 285.3170 13.17648643152001
ONEWEB-0300             
1 49089U 21075Q   24279.52450308  .00000206  00000+0  53626-3 0  9998
2 49089  87.8846 114.0782 0001485  96.6651 263.4646 13.12445026153926
ONEWEB-0301             
1 49090U 21075R   24279.50828284 -.00000550  00000+0 -15656-2 0  9994
2 49090  87.8845 114.0854 0001542  94.8182 265.3123 13.12443149153284
ONEWEB-0302             
1 49091U 21075S   24279.57153419 -.00000324  00000+0 -93732-3 0  9994
2 49091  87.8848 114.0721 0001726  76.6505 283.4816 13.12440697153276
ONEWEB-0304             
1 49092U 21075T   24279.83295297  .00000112  00000+0  25617-3 0  9995
2 49092  87.9101 129.2467 0001582  73.6536 286.4769 13.17649691152994
ONEWEB-0305             
1 49093U 21075U   24279.52246342  .00000018  00000+0  14299-4 0  9999
2 49093  87.9096 129.2928 0001368  67.7680 292.3596 13.17652155152001
ONEWEB-0308             
1 49094U 21075V   24279.56506112 -.00000200  00000+0 -59233-3 0  9999
2 49094  87.8844 114.0713 0001606  86.2674 273.8638 13.12443622153284
ONEWEB-0309             
1 49095U 21075W   24279.52582854  .00000054  00000+0  10686-3 0  9997
2 49095  87.9101 129.2998 0002099  72.3086 287.8274 13.17648521151970
ONEWEB-0310             
1 49096U 21075X   24279.50342760 -.00000300  00000+0 -87016-3 0  9993
2 49096  87.8857 114.1014 0001762  81.7629 278.3700 13.12444242153906
ONEWEB-0311             
1 49097U 21075Y   24279.53257723  .00000010  00000+0 -76362-5 0  9992
2 49097  87.9103 129.2998 0001334  69.2036 290.9238 13.17649154152020
ONEWEB-0312             
1 49098U 21075Z   24279.54776262  .00000023  00000+0  25537-4 0  9998
2 49098  87.9102 129.3287 0001729  64.6027 295.5284 13.17647789152001
ONEWEB-0313             
1 49099U 21075AA  24279.52498173  .00000040  00000+0  70959-4 0  9996
2 49099  87.9101 129.3359 0001603  71.1885 288.9420 13.17648455151993
ONEWEB-0314             
1 49100U 21075AB  24279.51908365  .00000020  00000+0  17945-4 0  9991
2 49100  87.9096 129.2906 0001633  65.8827 294.2475 13.17649967151961
ONEWEB-0315             
1 49101U 21075AC  24279.78243094  .00000206  00000+0  53795-3 0  9990
2 49101  87.8845 114.0206 0001191  83.6176 276.5088 13.12443578154929
ONEWEB-0316             
1 49102U 21075AD  24279.55200000  .00000043  00000+0  76975-4 0  9991
2 49102  87.9055  98.7929 0001460  83.1584 276.9714 13.18684631155543
ONEWEB-0317             
1 49103U 21075AE  24279.54723212  .00000427  00000+0  11513-2 0  9997
2 49103  87.8845 114.0787 0001943  89.8513 270.2838 13.12441958153915
ONEWEB-0318             
1 49104U 21075AF  24279.54883812 -.00000002  00000+0 -38585-4 0  9992
2 49104  87.9054  98.7840 0001337  82.0589 278.0694 13.18684248155502
ONEWEB-0319             
1 49105U 21075AG  24279.53426587  .00000021  00000+0  20946-4 0  9995
2 49105  87.9101 129.3244 0001291  65.1133 295.0132 13.17649019152005
ONEWEB-0323             
1 49106U 21075AH  24279.84245199  .00000459  00000+0  12411-2 0  9999
2 49106  87.8846 114.0067 0001454  77.0734 283.0557 13.12442873154313
ONEWEB-0329             
1 49107U 21075AJ  24279.61864663  .00000042  00000+0  75315-4 0  9990
2 49107  87.9101 129.3122 0001556  73.0321 287.0981 13.17648001152983
ONEWEB-0330             
1 49108U 21075AK  24279.84813423  .00000041  00000+0  73006-4 0  9998
2 49108  87.9103 129.2679 0001736  71.4570 288.6750 13.17648190153059
ONEWEB-0292             
1 49186U 21083A   24279.53575480  .00000267  00000+0  69732-3 0  9997
2 49186  87.8866  83.5402 0001391  90.9945 269.1344 13.13470123149586
ONEWEB-0303             
1 49187U 21083B   24279.54568011  .00000028  00000+0  37450-4 0  9999
2 49187  87.9055  98.7856 0001412  84.8161 275.3132 13.18684607148318
ONEWEB-0306             
1 49188U 21083C   24279.53620213  .00000070  00000+0  14436-3 0  9997
2 49188  87.9053  98.7737 0001813  86.3808 273.7532 13.18685527148357
ONEWEB-0307             
1 49189U 21083D   24279.83490149  .00000319  00000+0  83986-3 0  9996
2 49189  87.8866  83.4816 0001907  85.8645 274.2702 13.13471387150917
ONEWEB-0320             
1 49190U 21083E   24279.54251775  .00000041  00000+0  71395-4 0  9990
2 49190  87.9055  98.7983 0001644  86.4691 273.6629 13.18684231148311
ONEWEB-0321             
1 49191U 21083F   24279.58613859  .00000241  00000+0  56197-3 0  9994
2 49191  87.9274  37.6820 0001984 102.3094 257.8262 13.20771260155046
ONEWEB-0322             
1 49192U 21083G   24279.52622110  .00000381  00000+0  10091-2 0  9996
2 49192  87.8866  83.5324 0002055  92.5054 267.6310 13.13468909149577
ONEWEB-0324             
1 49193U 21083H   24279.75593129  .00000195  00000+0  46220-3 0  9996
2 49193  87.9053  98.7365 0001662  77.7664 282.3654 13.18686750149649
ONEWEB-0325             
1 49194U 21083J   24279.76066607  .00000158  00000+0  36692-3 0  9995
2 49194  87.9056  98.7507 0001713  89.1597 270.9731 13.18685187149653
ONEWEB-0326             
1 49195U 21083K   24279.54727585  .00000067  00000+0  13767-3 0  9998
2 49195  87.9054  98.7896 0001165  76.3423 283.7839 13.18686400148334
ONEWEB-0327             
1 49196U 21083L   24279.54649005  .00000040  00000+0  68453-4 0  9993
2 49196  87.9054  98.8151 0001215  87.0916 273.0355 13.18693167148357
